[{"OBJECT_NAME":"STARLINK-35646","OBJECT_ID":"2025-281M","EPOCH":"2026-03-09T02:13:05.380896","MEAN_MOTION":15.27595831,"ECCENTRICITY":0.00019534,"INCLINATION":43.0034,"RA_OF_ASC_NODE":346.8924,"ARG_OF_PERICENTER":259.9846,"MEAN_ANOMALY":100.0785,"EPHEMERIS_TYPE":0,"CLASSIFICATION_TYPE":"U","NORAD_CAT_ID":66859,"ELEMENT_SET_NO":999,"REV_AT_EPOCH":1609,"BSTAR":0.0015373956,"MEAN_MOTION_DOT":0.00042308,"MEAN_MOTION_DDOT":0},{"OBJECT_NAME":"SIMSAT 2","OBJECT_ID":"2000-026B","EPOCH":"2026-03-09T20:25:01.673184","MEAN_MOTION":15.29036787,"ECCENTRICITY":0.00037035,"INCLINATION":86.3514,"RA_OF_ASC_NODE":176.4271,"ARG_OF_PERICENTER":287.9875,"MEAN_ANOMALY":72.0969,"EPHEMERIS_TYPE":0,"CLASSIFICATION_TYPE":"U","NORAD_CAT_ID":26366,"ELEMENT_SET_NO":999,"REV_AT_EPOCH":42803,"BSTAR":0.00013465771,"MEAN_MOTION_DOT":3.833e-5,"MEAN_MOTION_DDOT":0}]
